{"type":"FeatureCollection","fuente":"ICGC, Divisions administratives v2r2 (20/01/2026), municipios 1:1.000.000; ámbitos territoriales según Idescat (codis id=50&n=28)","features":[{"type":"Feature","properties":{"codigo_ambito":"AT01","ambito":"Metropolità"},"geometry":{"type":"MultiPolygon","coordinates":[[[[2.00295,41.26443],[1.9445,41.26349],[1.9374,41.27479],[1.94249,41.28027],[1.92348,41.29113],[1.9022,41.28085],[1.89208,41.28247],[1.87143,41.27864],[1.86907,41.28129],[1.87267,41.29345],[1.85518,41.29859],[1.84673,41.30635],[1.85019,41.31646],[1.84785,41.31932],[1.85166,41.31924],[1.86181,41.33424],[1.871,41.33818],[1.8702,41.34288],[1.88296,41.34449],[1.89838,41.35481],[1.89007,41.36279],[1.88724,41.372],[1.87089,41.38041],[1.86934,41.38728],[1.87667,41.38961],[1.87578,41.39894],[1.87924,41.40528],[1.88495,41.40814],[1.88119,41.41159],[1.88229,41.41423],[1.88875,41.41892],[1.88751,41.42301],[1.89131,41.43002],[1.89687,41.43344],[1.87277,41.4602],[1.87145,41.47713],[1.84773,41.48943],[1.84049,41.49765],[1.83907,41.50072],[1.84264,41.50641],[1.85496,41.50867],[1.85352,41.51994],[1.84184,41.52373],[1.83176,41.532],[1.81345,41.55572],[1.79494,41.56152],[1.80602,41.57173],[1.81284,41.6035],[1.83053,41.59136],[1.86331,41.59228],[1.86079,41.60963],[1.86414,41.61786],[1.87323,41.61272],[1.89276,41.61694],[1.88894,41.64827],[1.89048,41.65292],[1.90098,41.65712],[1.90659,41.66424],[1.91994,41.66579],[1.9303,41.658],[1.93389,41.66322],[1.94204,41.65632],[1.94213,41.64887],[1.96112,41.64419],[1.97145,41.64883],[1.98293,41.64817],[1.99017,41.65442],[2.00939,41.65666],[2.01077,41.66668],[2.00463,41.67529],[2.01281,41.6807],[2.00913,41.69127],[2.02218,41.69864],[2.02227,41.70825],[2.01467,41.7246],[2.02653,41.72679],[2.02867,41.73584],[2.03485,41.73716],[2.03771,41.74333],[2.04628,41.7494],[2.04346,41.75679],[2.05356,41.76076],[2.04228,41.76605],[2.04528,41.7708],[2.04136,41.78438],[2.05152,41.79104],[2.05864,41.79346],[2.06655,41.78914],[2.08137,41.78944],[2.08827,41.77867],[2.09413,41.77519],[2.12462,41.78336],[2.12829,41.78133],[2.13873,41.79233],[2.15005,41.79529],[2.16039,41.79316],[2.16288,41.79848],[2.17061,41.80155],[2.18601,41.78918],[2.18863,41.75561],[2.18447,41.74267],[2.18951,41.73255],[2.21357,41.72688],[2.23617,41.73207],[2.24058,41.72961],[2.25532,41.73077],[2.25615,41.72819],[2.26273,41.73229],[2.25793,41.73818],[2.26048,41.74537],[2.25064,41.74962],[2.24933,41.75815],[2.25177,41.76286],[2.27248,41.77057],[2.29074,41.79256],[2.29874,41.79736],[2.30511,41.79798],[2.3209,41.78783],[2.32819,41.78879],[2.32847,41.77575],[2.33436,41.76365],[2.34353,41.76329],[2.36536,41.76976],[2.36547,41.78547],[2.36222,41.78988],[2.37563,41.79693],[2.38268,41.8088],[2.38698,41.80519],[2.40473,41.8017],[2.43096,41.80403],[2.443,41.79885],[2.44392,41.78936],[2.4555,41.78442],[2.47253,41.7896],[2.46924,41.77793],[2.4894,41.76585],[2.51593,41.76153],[2.51813,41.75535],[2.51504,41.74863],[2.53053,41.73923],[2.53328,41.73581],[2.53059,41.73069],[2.53837,41.72148],[2.54769,41.71899],[2.5694,41.72612],[2.57708,41.72447],[2.59894,41.72833],[2.59571,41.7214],[2.60019,41.71615],[2.5879,41.70023],[2.5942,41.68673],[2.59968,41.68382],[2.61377,41.69252],[2.62904,41.68829],[2.63301,41.68984],[2.64098,41.71178],[2.65008,41.72026],[2.65563,41.72113],[2.6701,41.71439],[2.70251,41.72815],[2.72405,41.7444],[2.74421,41.73488],[2.77602,41.73495],[2.77706,41.73073],[2.76586,41.7257],[2.77452,41.70029],[2.77022,41.68753],[2.75785,41.6794],[2.77668,41.64987],[2.74581,41.64222],[2.71919,41.62952],[2.63172,41.6037],[2.57187,41.58229],[2.56058,41.57498],[2.55794,41.57434],[2.55653,41.57446],[2.56011,41.57537],[2.56285,41.57932],[2.55544,41.57936],[2.55895,41.57613],[2.54932,41.57694],[2.51461,41.56224],[2.5058,41.55541],[2.50902,41.55835],[2.50856,41.55966],[2.50362,41.55563],[2.46148,41.5426],[2.44963,41.53394],[2.44929,41.5298],[2.44449,41.52617],[2.44877,41.52984],[2.44676,41.53202],[2.44308,41.52925],[2.4447,41.52784],[2.43955,41.52835],[2.37046,41.48866],[2.36165,41.48923],[2.33,41.48121],[2.3123,41.47359],[2.31668,41.47769],[2.30444,41.47495],[2.27642,41.46409],[2.25316,41.4485],[2.24282,41.43119],[2.24435,41.43643],[2.24164,41.43698],[2.24252,41.43362],[2.23982,41.43378],[2.24203,41.43215],[2.23438,41.42208],[2.23312,41.41455],[2.22968,41.40921],[2.23293,41.41467],[2.22749,41.41546],[2.22503,41.41323],[2.22946,41.41187],[2.22728,41.41049],[2.2253,41.40653],[2.21808,41.40439],[2.21553,41.39859],[2.20211,41.39009],[2.20362,41.38741],[2.20067,41.38381],[2.20274,41.38661],[2.19831,41.3869],[2.19998,41.38519],[2.19279,41.37899],[2.18938,41.37127],[2.19186,41.36986],[2.18536,41.35773],[2.18924,41.36657],[2.18494,41.36526],[2.18721,41.37001],[2.18524,41.36809],[2.18478,41.37184],[2.18754,41.37316],[2.18424,41.37295],[2.18725,41.3776],[2.18466,41.38067],[2.18305,41.37434],[2.18231,41.37955],[2.17798,41.37414],[2.18211,41.37041],[2.17709,41.37215],[2.17652,41.36713],[2.18074,41.36578],[2.17347,41.36204],[2.17674,41.36055],[2.17547,41.35864],[2.17094,41.36025],[2.17305,41.3565],[2.16691,41.34714],[2.16324,41.34837],[2.15331,41.3427],[2.15092,41.34648],[2.14956,41.33667],[2.14428,41.33475],[2.14728,41.3337],[2.14593,41.33099],[2.14892,41.33],[2.15407,41.33902],[2.15625,41.34182],[2.15925,41.34325],[2.1652,41.34139],[2.16488,41.33818],[2.15917,41.32721],[2.15381,41.32732],[2.15232,41.32184],[2.15372,41.32201],[2.15407,41.32192],[2.15623,41.3207],[2.1565,41.32046],[2.15656,41.32028],[2.15643,41.3199],[2.15291,41.31633],[2.15495,41.31523],[2.14236,41.30425],[2.14515,41.30184],[2.14291,41.29911],[2.1529,41.29634],[2.16676,41.30966],[2.16514,41.31778],[2.16756,41.31157],[2.16668,41.30892],[2.15452,41.29704],[2.15112,41.29533],[2.14608,41.29518],[2.13706,41.3006],[2.13788,41.2931],[2.13608,41.29763],[2.12968,41.29742],[2.07474,41.27654],[2.00295,41.26443]],[[2.15286,41.31639],[2.15648,41.32016],[2.15385,41.32193],[2.15047,41.31764],[2.15286,41.31639]],[[2.15408,41.33885],[2.15434,41.33874],[2.15434,41.33897],[2.15408,41.33885]],[[2.15465,41.33939],[2.15479,41.33946],[2.15471,41.33949],[2.15465,41.33939]]],[[[2.1702,41.32771],[2.17269,41.31704],[2.16944,41.32644],[2.17171,41.34646],[2.18306,41.3652],[2.17513,41.34935],[2.1702,41.32771]]],[[[2.19463,41.37701],[2.19442,41.37722],[2.19456,41.37728],[2.19463,41.37701]]],[[[2.20606,41.38917],[2.20585,41.3894],[2.20625,41.38936],[2.20606,41.38917]]],[[[2.22198,41.40362],[2.22312,41.40493],[2.22198,41.40355],[2.22198,41.40362]]],[[[2.22651,41.40713],[2.22628,41.40746],[2.2265,41.40768],[2.22651,41.40713]]],[[[2.22701,41.4079],[2.22675,41.40785],[2.22694,41.40826],[2.22701,41.4079]]],[[[2.22801,41.40899],[2.2275,41.40941],[2.2279,41.40961],[2.22801,41.40899]]]]}},{"type":"Feature","properties":{"codigo_ambito":"AT02","ambito":"Comarques Gironines"},"geometry":{"type":"MultiPolygon","coordinates":[[[[2.59894,41.72833],[2.57813,41.72455],[2.5694,41.72612],[2.54769,41.71899],[2.53837,41.72148],[2.53059,41.73069],[2.53328,41.73581],[2.53053,41.73923],[2.51504,41.74863],[2.51813,41.75535],[2.51593,41.76153],[2.49055,41.76543],[2.46924,41.77793],[2.47253,41.7896],[2.4555,41.78442],[2.44392,41.78936],[2.443,41.79885],[2.43096,41.80403],[2.41841,41.8045],[2.40744,41.82257],[2.41171,41.83039],[2.42426,41.83947],[2.41812,41.85068],[2.42257,41.85471],[2.43826,41.85494],[2.45375,41.86966],[2.45297,41.87963],[2.44376,41.88548],[2.44619,41.89476],[2.455,41.89596],[2.46814,41.90423],[2.47482,41.91481],[2.47895,41.91624],[2.4791,41.93084],[2.47018,41.93914],[2.4571,41.94345],[2.44238,41.94143],[2.43676,41.94797],[2.44211,41.95449],[2.44144,41.95991],[2.42728,41.96895],[2.43827,41.97339],[2.44276,41.97161],[2.44134,41.96806],[2.44934,41.96989],[2.45225,41.96589],[2.47162,41.96919],[2.4727,41.97535],[2.48021,41.97873],[2.48005,41.98249],[2.48802,41.98485],[2.46881,41.99374],[2.47973,41.99945],[2.48322,41.99714],[2.49905,42.0015],[2.49981,42.00787],[2.49467,42.01744],[2.50306,42.0235],[2.50609,42.0323],[2.4928,42.03834],[2.48128,42.05074],[2.49614,42.05901],[2.49073,42.06827],[2.48344,42.06759],[2.47646,42.07621],[2.46688,42.07394],[2.45821,42.07912],[2.42687,42.06128],[2.41132,42.06881],[2.3945,42.08676],[2.39688,42.08761],[2.39464,42.0953],[2.40017,42.10276],[2.37658,42.10546],[2.37318,42.11582],[2.38106,42.12368],[2.35077,42.13767],[2.34924,42.14768],[2.35789,42.15696],[2.37784,42.16441],[2.38447,42.1635],[2.38599,42.16687],[2.3788,42.17092],[2.37574,42.16951],[2.37117,42.1761],[2.32722,42.16256],[2.3039,42.15908],[2.2958,42.16569],[2.26489,42.16418],[2.27707,42.1617],[2.28195,42.15713],[2.29108,42.15673],[2.27755,42.14991],[2.29475,42.14929],[2.28576,42.14005],[2.27243,42.14042],[2.26987,42.14501],[2.25861,42.13912],[2.24472,42.13862],[2.23599,42.14378],[2.20988,42.13959],[2.21091,42.13682],[2.20743,42.13482],[2.21298,42.1289],[2.20896,42.12722],[2.20372,42.13146],[2.20176,42.12855],[2.20444,42.12549],[2.20053,42.12397],[2.18873,42.12429],[2.18648,42.13398],[2.18092,42.13525],[2.14357,42.13092],[2.13734,42.12078],[2.12585,42.11241],[2.09992,42.12506],[2.09939,42.13983],[2.09411,42.14192],[2.07058,42.14173],[2.06115,42.13516],[2.05132,42.14309],[2.03736,42.14277],[2.03327,42.1504],[2.02765,42.15282],[2.00417,42.14971],[2.00497,42.15493],[1.99046,42.17139],[1.99161,42.17846],[1.98816,42.18148],[1.96535,42.17954],[1.96465,42.19883],[2.00773,42.19364],[1.99767,42.19134],[2.00533,42.18271],[1.9959,42.17201],[2.00401,42.16646],[2.00466,42.16246],[2.0234,42.16481],[2.03067,42.17058],[2.03149,42.17636],[2.03753,42.17856],[2.05712,42.17476],[2.06152,42.17959],[2.06342,42.19152],[2.05285,42.19742],[2.05026,42.21471],[2.05311,42.21945],[2.03942,42.22077],[2.03006,42.21563],[2.01753,42.23226],[2.0248,42.23262],[2.02968,42.24479],[2.029,42.25357],[2.04015,42.26002],[2.04266,42.26952],[2.05536,42.28014],[2.06764,42.28379],[2.07022,42.28955],[2.01872,42.31033],[1.98375,42.29901],[1.96939,42.30325],[1.95535,42.3121],[1.9612,42.33188],[1.98834,42.33255],[1.99137,42.33632],[1.98791,42.34354],[2.00682,42.34306],[2.01607,42.34709],[2.02336,42.3556],[2.05982,42.35828],[2.0724,42.36488],[2.08486,42.36193],[2.09037,42.374],[2.1165,42.38324],[2.11484,42.39449],[2.12185,42.39987],[2.12557,42.4098],[2.14887,42.42094],[2.16931,42.42354],[2.17914,42.41923],[2.20145,42.41644],[2.22433,42.42592],[2.24641,42.42892],[2.25711,42.43861],[2.29159,42.42312],[2.31239,42.42832],[2.32443,42.41767],[2.34398,42.41688],[2.34815,42.40743],[2.36963,42.40094],[2.38548,42.40038],[2.40705,42.39285],[2.43331,42.39416],[2.43348,42.37716],[2.44575,42.36961],[2.45357,42.36967],[2.45735,42.36331],[2.46629,42.36057],[2.48347,42.33996],[2.49894,42.34312],[2.52652,42.33342],[2.54104,42.33359],[2.55243,42.3434],[2.55403,42.35316],[2.56172,42.35589],[2.56187,42.36113],[2.56634,42.35814],[2.58538,42.3572],[2.61844,42.34554],[2.67032,42.34051],[2.6755,42.34241],[2.67485,42.35707],[2.66088,42.36602],[2.66118,42.37731],[2.6514,42.38659],[2.65195,42.38888],[2.66573,42.38562],[2.67036,42.38733],[2.6734,42.39917],[2.6713,42.40236],[2.67434,42.40498],[2.69446,42.4076],[2.71708,42.42152],[2.75275,42.42633],[2.77032,42.41177],[2.78502,42.4173],[2.80084,42.41846],[2.80519,42.43201],[2.81863,42.44052],[2.82771,42.43956],[2.83349,42.44823],[2.83274,42.45269],[2.83909,42.45941],[2.86161,42.45501],[2.86442,42.46436],[2.87048,42.46743],[2.88224,42.46049],[2.89147,42.46201],[2.90496,42.45692],[2.91752,42.45628],[2.92451,42.45855],[2.9319,42.47418],[2.94652,42.481],[2.96741,42.4655],[2.97969,42.46735],[2.9888,42.47402],[2.99987,42.47333],[3.01233,42.46685],[3.03182,42.47492],[3.0405,42.47346],[3.05416,42.44997],[3.06705,42.44258],[3.08572,42.4256],[3.09887,42.42515],[3.11127,42.43535],[3.12145,42.43693],[3.17497,42.43498],[3.16057,42.4282],[3.16983,42.42488],[3.17073,42.41664],[3.15596,42.40716],[3.15733,42.40356],[3.1623,42.40446],[3.1648,42.401],[3.1527,42.39367],[3.1597,42.38894],[3.16315,42.39167],[3.16697,42.38964],[3.16284,42.38619],[3.16276,42.38471],[3.15963,42.38509],[3.15502,42.37875],[3.15964,42.37159],[3.16508,42.37428],[3.1646,42.37155],[3.16715,42.36883],[3.16304,42.36029],[3.17805,42.35289],[3.17842,42.35284],[3.17986,42.35345],[3.18073,42.3533],[3.18427,42.35038],[3.18787,42.35181],[3.18551,42.34365],[3.1965,42.33496],[3.2034,42.33716],[3.20252,42.34215],[3.20031,42.34073],[3.20343,42.34706],[3.21021,42.34391],[3.21545,42.34952],[3.22262,42.34824],[3.22868,42.35152],[3.23823,42.34887],[3.23681,42.34346],[3.24089,42.33571],[3.24647,42.33643],[3.24972,42.32971],[3.25056,42.33581],[3.26014,42.33333],[3.26259,42.33446],[3.26116,42.33767],[3.26326,42.33671],[3.26143,42.34013],[3.26765,42.34042],[3.27053,42.33837],[3.28031,42.33621],[3.27762,42.33258],[3.28575,42.33142],[3.28583,42.3257],[3.28907,42.32938],[3.29305,42.32675],[3.29227,42.32953],[3.29483,42.32944],[3.2973,42.32773],[3.30114,42.32625],[3.30799,42.32663],[3.30716,42.32237],[3.31099,42.32019],[3.31175,42.32466],[3.32222,42.31951],[3.31992,42.31671],[3.31515,42.31764],[3.31816,42.31454],[3.31145,42.31764],[3.31274,42.31302],[3.30757,42.31406],[3.30758,42.31066],[3.30626,42.31332],[3.30274,42.31124],[3.30253,42.30799],[3.29818,42.30677],[3.30029,42.30448],[3.29087,42.30708],[3.28654,42.30356],[3.29299,42.30171],[3.28853,42.29737],[3.29165,42.29486],[3.28619,42.29325],[3.29081,42.28949],[3.29044,42.29225],[3.29582,42.28992],[3.29925,42.28455],[3.2876,42.28251],[3.28092,42.28847],[3.2766,42.28745],[3.27555,42.28393],[3.28076,42.2804],[3.27674,42.28001],[3.2831,42.27014],[3.28726,42.27099],[3.28777,42.26587],[3.28294,42.2601],[3.28285,42.25897],[3.28103,42.25762],[3.28159,42.25386],[3.25364,42.25256],[3.25634,42.24889],[3.25261,42.24642],[3.25401,42.24429],[3.26626,42.24334],[3.26373,42.23771],[3.24923,42.24081],[3.24386,42.24967],[3.23905,42.25098],[3.23764,42.24749],[3.22947,42.25158],[3.22685,42.24898],[3.23056,42.2449],[3.22584,42.24353],[3.22894,42.2404],[3.21795,42.23239],[3.19657,42.24709],[3.18235,42.24546],[3.18164,42.25096],[3.17785,42.25106],[3.18108,42.2521],[3.18108,42.25579],[3.17891,42.2525],[3.17665,42.25541],[3.18064,42.25786],[3.17622,42.25708],[3.17562,42.25407],[3.17577,42.25693],[3.1791,42.25878],[3.17704,42.26059],[3.17149,42.25989],[3.17463,42.26149],[3.17107,42.2644],[3.16309,42.26434],[3.14552,42.25622],[3.13535,42.24804],[3.1351,42.24755],[3.13651,42.24641],[3.13638,42.24568],[3.13339,42.24733],[3.135,42.24563],[3.1194,42.22723],[3.11286,42.2102],[3.11256,42.16585],[3.11649,42.14566],[3.12378,42.12834],[3.13559,42.127],[3.13824,42.11561],[3.1491,42.11705],[3.14501,42.11891],[3.14929,42.1212],[3.16484,42.11305],[3.16692,42.11334],[3.16917,42.11488],[3.17613,42.11144],[3.1746,42.1073],[3.16975,42.10818],[3.16937,42.10554],[3.1743,42.10259],[3.18171,42.10527],[3.19518,42.08337],[3.20201,42.08219],[3.19858,42.07772],[3.21208,42.06866],[3.20901,42.06571],[3.21004,42.06144],[3.2145,42.06113],[3.21212,42.05415],[3.20659,42.05059],[3.20754,42.05356],[3.2007,42.05333],[3.20534,42.05152],[3.20039,42.05099],[3.19709,42.04495],[3.19429,42.0305],[3.19611,42.00972],[3.21029,41.97379],[3.22215,41.97404],[3.23105,41.96917],[3.2318,41.96591],[3.22719,41.96391],[3.23015,41.96013],[3.23361,41.96186],[3.22938,41.955],[3.23343,41.9503],[3.21801,41.94263],[3.2142,41.93642],[3.22053,41.93484],[3.21498,41.92909],[3.21905,41.92645],[3.21643,41.92419],[3.21867,41.92263],[3.2158,41.92149],[3.21665,41.91851],[3.20734,41.91727],[3.21201,41.90916],[3.20682,41.90803],[3.20936,41.90212],[3.20535,41.90028],[3.20272,41.89156],[3.19438,41.8936],[3.19039,41.88812],[3.18247,41.88709],[3.18319,41.88174],[3.1783,41.87919],[3.18125,41.87651],[3.17842,41.87496],[3.17696,41.87012],[3.17789,41.86779],[3.15903,41.85965],[3.15499,41.86249],[3.14385,41.85783],[3.14488,41.84967],[3.1378,41.84888],[3.13762,41.84572],[3.13687,41.84467],[3.13579,41.84407],[3.13687,41.84764],[3.13239,41.84628],[3.13583,41.84519],[3.12937,41.84126],[3.12005,41.84162],[3.12821,41.84296],[3.12218,41.84816],[3.10219,41.84494],[3.09358,41.83759],[3.09301,41.83227],[3.08776,41.83161],[3.07137,41.81903],[3.06488,41.8033],[3.06662,41.8007],[3.06195,41.8043],[3.05522,41.80501],[3.06538,41.80092],[3.05569,41.78711],[3.0537,41.79059],[3.0493,41.79036],[3.0452,41.78672],[3.04652,41.78304],[3.04823,41.78199],[3.04371,41.77856],[3.03427,41.77701],[3.03756,41.7801],[3.02988,41.77964],[3.03223,41.77252],[3.03023,41.77087],[3.02613,41.77396],[3.01045,41.77192],[2.99782,41.763],[2.97714,41.75753],[2.9579,41.74028],[2.96026,41.73762],[2.95842,41.7357],[2.95367,41.7369],[2.95352,41.73138],[2.95083,41.7329],[2.94666,41.73026],[2.94785,41.72783],[2.94111,41.72512],[2.93481,41.72033],[2.93507,41.71525],[2.91952,41.71279],[2.91273,41.70816],[2.90344,41.71032],[2.90026,41.70564],[2.89009,41.70348],[2.88738,41.70153],[2.88114,41.70404],[2.86597,41.6987],[2.85109,41.69912],[2.84229,41.69358],[2.83391,41.69421],[2.81941,41.68894],[2.80289,41.6736],[2.80156,41.67413],[2.801,41.67245],[2.79933,41.67153],[2.79831,41.67178],[2.80092,41.67397],[2.79749,41.67546],[2.78892,41.66999],[2.77777,41.65039],[2.75785,41.6794],[2.77022,41.68753],[2.77452,41.70029],[2.76586,41.7257],[2.77706,41.73073],[2.77602,41.73495],[2.74421,41.73488],[2.72405,41.7444],[2.70251,41.72815],[2.6701,41.71439],[2.65563,41.72113],[2.65008,41.72026],[2.64098,41.71178],[2.63301,41.68984],[2.62904,41.68829],[2.61377,41.69252],[2.59968,41.68382],[2.5942,41.68673],[2.5879,41.70023],[2.60019,41.71615],[2.59571,41.7214],[2.59894,41.72833]],[[3.16282,42.38593],[3.16282,42.38591],[3.1628215384615386,42.38593153846154],[3.16282,42.38593]]],[[[2.01815,42.11129],[2.00762,42.10648],[2.00238,42.12534],[2.02081,42.12704],[2.02096,42.13104],[2.0295,42.12776],[2.02948,42.12108],[2.0208,42.11982],[2.01815,42.11129]]],[[[2.79214,41.67049],[2.79248,41.67045],[2.79204,41.66997],[2.79214,41.67049]]],[[[2.80319,41.67322],[2.80376,41.67316],[2.80312,41.6731],[2.80319,41.67322]]],[[[2.80765,41.67681],[2.80784,41.6775],[2.80827,41.67723],[2.80765,41.67681]]],[[[2.8159,41.68182],[2.81576,41.6822],[2.81607,41.68189],[2.8159,41.68182]]],[[[2.81625,41.68278],[2.81609,41.68303],[2.81632,41.68289],[2.81625,41.68278]]],[[[2.81818,41.68646],[2.8188,41.68687],[2.81912,41.68688],[2.81818,41.68646]]],[[[2.8271,41.68997],[2.82691,41.69032],[2.82734,41.69015],[2.8271,41.68997]]],[[[2.82907,41.69097],[2.82953,41.69108],[2.82949,41.69066],[2.82907,41.69097]]],[[[2.87215,41.70003],[2.87213,41.70041],[2.87235,41.70024],[2.87215,41.70003]]],[[[2.88635,41.70132],[2.88665,41.70155],[2.8869,41.7015],[2.88635,41.70132]]],[[[2.87896,41.70125],[2.87925,41.70167],[2.87937,41.70156],[2.87896,41.70125]]],[[[2.89291,41.70354],[2.89266,41.70372],[2.89303,41.70377],[2.89291,41.70354]]],[[[2.89596,41.70354],[2.89582,41.70376],[2.89634,41.70386],[2.89596,41.70354]]],[[[2.91206,41.70725],[2.91191,41.70777],[2.91234,41.70744],[2.91206,41.70725]]],[[[2.92661,41.71357],[2.92737,41.71354],[2.92734,41.71343],[2.92661,41.71357]]],[[[2.94035,41.71999],[2.9396,41.72024],[2.93998,41.72066],[2.94035,41.71999]]],[[[2.941,41.72435],[2.94111,41.72464],[2.94141,41.7245],[2.941,41.72435]]],[[[2.94603,41.72558],[2.94613,41.7259],[2.94618,41.72561],[2.94603,41.72558]]],[[[2.96517,41.74499],[2.96546,41.74536],[2.9655,41.74527],[2.96517,41.74499]]],[[[2.98147,41.75735],[2.98197,41.75756],[2.98203,41.75749],[2.98147,41.75735]]],[[[2.98071,41.75784],[2.98097,41.75809],[2.98129,41.75782],[2.98071,41.75784]]],[[[3.03246,41.77255],[3.03236,41.77193],[3.03205,41.77173],[3.03246,41.77255]]],[[[3.04672,41.78323],[3.04721,41.7834],[3.04728,41.78331],[3.04672,41.78323]]],[[[3.05655,41.78705],[3.05687,41.78681],[3.05635,41.78697],[3.05655,41.78705]]],[[[3.05569,41.78708],[3.05652,41.78733],[3.05678,41.78721],[3.05569,41.78708]]],[[[3.05934,41.79168],[3.05947,41.79202],[3.05969,41.792],[3.05934,41.79168]]],[[[3.05823,41.80413],[3.05877,41.80431],[3.05934,41.80401],[3.05823,41.80413]]],[[[3.08112,41.82377],[3.08096,41.82421],[3.08147,41.824],[3.08112,41.82377]]],[[[3.1874,41.86267],[3.18711,41.86286],[3.18741,41.86294],[3.1874,41.86267]]],[[[3.17857,41.8671],[3.1791,41.86752],[3.1794,41.86731],[3.17857,41.8671]]],[[[3.17848,41.86779],[3.17911,41.86771],[3.17853,41.86751],[3.17848,41.86779]]],[[[3.17814,41.87064],[3.1782,41.8711],[3.17843,41.87098],[3.17814,41.87064]]],[[[3.16627,42.11353],[3.16637,42.11406],[3.16651,42.11352],[3.16627,42.11353]]],[[[3.13159,42.1286],[3.13178,42.12883],[3.13193,42.1286],[3.13159,42.1286]]],[[[3.12319,42.13522],[3.12374,42.13615],[3.12389,42.13585],[3.12319,42.13522]]],[[[3.17831,42.35291],[3.17846,42.35335],[3.17865,42.35324],[3.17831,42.35291]]],[[[3.18287,42.35273],[3.18277,42.35365],[3.18334,42.35341],[3.18287,42.35273]]],[[[3.17582,42.35445],[3.17589,42.35481],[3.17631,42.35469],[3.17582,42.35445]]],[[[3.16476,42.3624],[3.16529,42.36211],[3.16534,42.36182],[3.16476,42.3624]]],[[[3.16714,42.3675],[3.16757,42.36729],[3.16745,42.36712],[3.16714,42.3675]]],[[[3.16536,42.37241],[3.16554,42.37284],[3.1656,42.37278],[3.16536,42.37241]]],[[[3.15923,42.38332],[3.15935,42.38368],[3.15966,42.38319],[3.15923,42.38332]]],[[[3.16306,42.38466],[3.16307,42.38509],[3.16328,42.38471],[3.16306,42.38466]]],[[[3.16462,42.39997],[3.16511,42.40013],[3.16524,42.4],[3.16462,42.39997]]],[[[3.16581,42.40061],[3.16524,42.4017],[3.16634,42.40162],[3.16581,42.40061]]],[[[3.16491,42.41063],[3.16554,42.4113],[3.16561,42.41125],[3.16491,42.41063]]],[[[3.21883,41.92129],[3.21934,41.92243],[3.22003,41.92223],[3.21883,41.92129]]],[[[3.21762,41.92406],[3.21786,41.92428],[3.21818,41.92427],[3.21762,41.92406]]],[[[3.21698,41.92455],[3.21767,41.92496],[3.2183,41.92489],[3.21698,41.92455]]],[[[3.21797,41.93821],[3.21838,41.93775],[3.21766,41.93785],[3.21797,41.93821]]],[[[3.2284,42.04142],[3.22828,42.04204],[3.22878,42.0418],[3.2284,42.04142]]],[[[3.22761,42.04183],[3.22727,42.04231],[3.22768,42.04207],[3.22761,42.04183]]],[[[3.22709,42.04481],[3.22386,42.0436],[3.22398,42.04429],[3.22709,42.04481]]],[[[3.22591,42.04889],[3.22094,42.046],[3.2194,42.04887],[3.22591,42.04889]]],[[[3.21031,42.06274],[3.21037,42.063],[3.21066,42.06283],[3.21031,42.06274]]],[[[3.2049,42.07366],[3.20575,42.07405],[3.20583,42.07339],[3.2049,42.07366]]],[[[3.19751,42.08432],[3.19765,42.08499],[3.19803,42.08442],[3.19751,42.08432]]],[[[3.26378,42.23718],[3.26386,42.23755],[3.26435,42.2373],[3.26378,42.23718]]],[[[3.20299,42.23993],[3.20329,42.24017],[3.20347,42.23993],[3.20299,42.23993]]],[[[3.20344,42.24025],[3.20331,42.24081],[3.20362,42.24084],[3.20344,42.24025]]],[[[3.19827,42.24247],[3.19792,42.24293],[3.19858,42.24291],[3.19827,42.24247]]],[[[3.28342,42.25999],[3.28363,42.26031],[3.28376,42.26006],[3.28342,42.25999]]],[[[3.28349,42.27353],[3.28346,42.27392],[3.28378,42.27378],[3.28349,42.27353]]],[[[3.29133,42.27933],[3.2913,42.27979],[3.29159,42.27973],[3.29133,42.27933]]],[[[3.29294,42.28035],[3.29257,42.28246],[3.29367,42.28108],[3.29294,42.28035]]],[[[3.27974,42.28166],[3.27848,42.28254],[3.2801,42.28164],[3.27974,42.28166]]],[[[3.29726,42.28908],[3.29696,42.28962],[3.29753,42.28935],[3.29726,42.28908]]],[[[3.29641,42.29138],[3.29723,42.29147],[3.29639,42.29135],[3.29641,42.29138]]],[[[3.30932,42.2914],[3.30834,42.29186],[3.30823,42.29245],[3.30932,42.2914]]],[[[3.30935,42.2917],[3.30885,42.29246],[3.30973,42.29154],[3.30935,42.2917]]],[[[3.29317,42.29276],[3.29608,42.29418],[3.29649,42.29038],[3.2958,42.29028],[3.29317,42.29276]]],[[[3.2969,42.2933],[3.29704,42.29349],[3.29728,42.29317],[3.2969,42.2933]]],[[[3.29556,42.2949],[3.29644,42.29479],[3.29659,42.29391],[3.29556,42.2949]]],[[[3.30085,42.30514],[3.30105,42.3054],[3.3011,42.3052],[3.30085,42.30514]]],[[[3.30964,42.31252],[3.31002,42.31268],[3.31005,42.31242],[3.30964,42.31252]]],[[[3.32207,42.31879],[3.3224,42.31857],[3.32171,42.31868],[3.32207,42.31879]]],[[[3.33164,42.31916],[3.33249,42.32004],[3.33214,42.31922],[3.33164,42.31916]]],[[[3.32392,42.32231],[3.3238,42.3219],[3.32348,42.32201],[3.32392,42.32231]]],[[[3.31822,42.32438],[3.32278,42.32231],[3.32443,42.32129],[3.32204,42.32129],[3.31822,42.32438]]],[[[3.29873,42.32736],[3.29881,42.32763],[3.29902,42.32738],[3.29873,42.32736]]],[[[3.30527,42.3271],[3.30511,42.32819],[3.30661,42.32761],[3.30527,42.3271]]],[[[3.29789,42.32841],[3.29807,42.32814],[3.29784,42.32832],[3.29789,42.32841]]],[[[3.28706,42.33274],[3.28561,42.33295],[3.28579,42.33345],[3.28706,42.33274]]],[[[3.26034,42.33668],[3.26082,42.33653],[3.26055,42.33635],[3.26034,42.33668]]],[[[3.24076,42.33707],[3.24075,42.33773],[3.24132,42.33742],[3.24076,42.33707]]],[[[3.27758,42.3373],[3.27748,42.33756],[3.27782,42.33741],[3.27758,42.3373]]],[[[3.27069,42.33843],[3.27075,42.33873],[3.27125,42.3386],[3.27069,42.33843]]],[[[3.24036,42.33933],[3.2406,42.33898],[3.24007,42.33905],[3.24036,42.33933]]],[[[3.24182,42.33973],[3.24289,42.3399],[3.24335,42.33932],[3.24182,42.33973]]],[[[3.21838,42.3501],[3.21772,42.35017],[3.21844,42.35026],[3.21838,42.3501]]]]}},{"type":"Feature","properties":{"codigo_ambito":"AT03","ambito":"Camp de Tarragona"},"geometry":{"type":"MultiPolygon","coordinates":[[[[0.94234,41.00778],[0.93088,40.98836],[0.92741,40.98698],[0.92933,40.99008],[0.92794,40.98806],[0.92236,40.98636],[0.9219,40.98882],[0.91662,40.98813],[0.8983,40.97531],[0.87531,40.95196],[0.86199,40.94686],[0.85731,40.93532],[0.81882,40.94073],[0.82079,40.94231],[0.80343,40.95298],[0.79868,40.96859],[0.77475,40.99674],[0.7843,41.01701],[0.7829,41.03099],[0.79818,41.04156],[0.81495,41.06182],[0.83546,41.05263],[0.8525,41.05644],[0.85748,41.06149],[0.85357,41.07886],[0.8636,41.08663],[0.8693,41.0847],[0.86725,41.07409],[0.87025,41.07347],[0.87318,41.08383],[0.8614,41.09343],[0.85033,41.09437],[0.8429,41.09982],[0.82623,41.09781],[0.82046,41.08951],[0.82367,41.07694],[0.81437,41.06703],[0.80505,41.06681],[0.7922,41.07121],[0.78684,41.07852],[0.77047,41.08378],[0.76677,41.09432],[0.7639,41.08717],[0.75678,41.0846],[0.75134,41.08612],[0.74868,41.09136],[0.73295,41.1027],[0.71238,41.10521],[0.71474,41.10743],[0.71104,41.11533],[0.71282,41.117],[0.69243,41.13179],[0.69747,41.13423],[0.69551,41.14171],[0.6776,41.16275],[0.67464,41.17354],[0.65857,41.18548],[0.68849,41.20249],[0.70477,41.2161],[0.687,41.22446],[0.68583,41.22975],[0.68866,41.23423],[0.68512,41.24523],[0.69248,41.25031],[0.69432,41.25696],[0.70123,41.26025],[0.69592,41.28166],[0.70784,41.28901],[0.71367,41.30249],[0.73035,41.30952],[0.75023,41.31161],[0.75269,41.31546],[0.75056,41.32459],[0.76236,41.33447],[0.81443,41.32682],[0.81893,41.32836],[0.82615,41.34122],[0.82904,41.35711],[0.84006,41.36181],[0.845,41.3623],[0.84716,41.35473],[0.86327,41.33811],[0.91149,41.3494],[0.94493,41.34989],[0.96435,41.35526],[0.96633,41.35858],[0.96247,41.35998],[0.96245,41.36579],[0.97263,41.37329],[0.97351,41.3808],[0.98196,41.39175],[0.992,41.38899],[0.99319,41.39404],[1.00347,41.40458],[1.01635,41.40397],[1.02772,41.40926],[1.03138,41.41954],[1.03852,41.42156],[1.04641,41.44065],[1.05542,41.44195],[1.06329,41.45215],[1.0755,41.45997],[1.05667,41.46642],[1.03746,41.47999],[1.04851,41.48754],[1.03833,41.49684],[1.03945,41.50138],[1.08614,41.4783],[1.10458,41.47535],[1.10807,41.46717],[1.12964,41.47425],[1.13086,41.47732],[1.17792,41.48728],[1.17978,41.48843],[1.17575,41.50023],[1.16675,41.5054],[1.16362,41.5132],[1.16542,41.51772],[1.17007,41.51924],[1.17122,41.5325],[1.17619,41.53377],[1.16648,41.53714],[1.16832,41.54027],[1.19769,41.54371],[1.21069,41.54869],[1.21263,41.55907],[1.21651,41.56217],[1.21574,41.56716],[1.21969,41.56972],[1.25534,41.57125],[1.25869,41.56756],[1.27091,41.57205],[1.29405,41.56639],[1.30424,41.57146],[1.32885,41.56697],[1.37086,41.5653],[1.38013,41.56143],[1.38314,41.55634],[1.39166,41.5562],[1.40319,41.55788],[1.40223,41.56471],[1.39501,41.56768],[1.39253,41.5752],[1.39513,41.57741],[1.40888,41.57589],[1.4152,41.58258],[1.41937,41.58286],[1.45397,41.56925],[1.43109,41.55557],[1.43485,41.55016],[1.44672,41.55247],[1.44835,41.53711],[1.43629,41.53935],[1.42569,41.5321],[1.40616,41.53426],[1.40049,41.52884],[1.39836,41.51417],[1.39574,41.51289],[1.40151,41.51243],[1.40817,41.5046],[1.44624,41.49511],[1.45444,41.48763],[1.4634,41.48765],[1.46681,41.48429],[1.47336,41.48605],[1.47459,41.4783],[1.48579,41.4719],[1.48699,41.46452],[1.48292,41.45761],[1.46865,41.44369],[1.47527,41.43661],[1.49595,41.43572],[1.48442,41.43177],[1.47854,41.4331],[1.47596,41.42931],[1.47746,41.4234],[1.48219,41.4222],[1.4902,41.40173],[1.48211,41.39812],[1.47986,41.38713],[1.47319,41.38026],[1.48423,41.38165],[1.49546,41.38967],[1.5097,41.39423],[1.51858,41.38886],[1.53702,41.38534],[1.5281,41.369],[1.51252,41.35916],[1.50436,41.36159],[1.49374,41.35528],[1.46282,41.35624],[1.40208,41.32501],[1.40363,41.32125],[1.41473,41.31739],[1.42546,41.30816],[1.42395,41.30463],[1.39897,41.29228],[1.41378,41.28769],[1.43601,41.28606],[1.43405,41.28104],[1.4395,41.2723],[1.41034,41.27493],[1.40279,41.27089],[1.39999,41.26346],[1.41881,41.26286],[1.43438,41.255],[1.43512,41.25126],[1.41515,41.24527],[1.4127,41.24043],[1.40592,41.23738],[1.40632,41.22688],[1.39049,41.21871],[1.3952,41.20557],[1.40983,41.21259],[1.42608,41.21164],[1.43569,41.20238],[1.45792,41.20349],[1.47677,41.20853],[1.47925,41.20627],[1.47934,41.19257],[1.4957,41.17317],[1.48521,41.16627],[1.48283,41.16607],[1.48817,41.16852],[1.48615,41.17013],[1.4839,41.16705],[1.46674,41.16605],[1.42692,41.14973],[1.40784,41.14093],[1.4043,41.13798],[1.40499,41.1361],[1.40271,41.13317],[1.40168,41.13266],[1.40438,41.13618],[1.39408,41.13183],[1.37646,41.13358],[1.34735,41.12797],[1.34402,41.12478],[1.33614,41.12856],[1.32107,41.12946],[1.29515,41.12694],[1.27786,41.11993],[1.27043,41.11315],[1.25583,41.11191],[1.24634,41.10046],[1.23219,41.09489],[1.22646,41.08751],[1.21348,41.07866],[1.22521,41.08716],[1.22354,41.09059],[1.23368,41.09979],[1.2452,41.1045],[1.23718,41.10646],[1.23753,41.10379],[1.23013,41.10095],[1.22589,41.10526],[1.22762,41.10031],[1.22656,41.09864],[1.22288,41.09624],[1.22554,41.09818],[1.22398,41.10181],[1.21293,41.09943],[1.21919,41.09238],[1.21607,41.09018],[1.20782,41.09736],[1.20481,41.09573],[1.21193,41.08869],[1.20979,41.08734],[1.21419,41.08712],[1.20973,41.08704],[1.20815,41.08755],[1.19719,41.09293],[1.20596,41.08362],[1.19681,41.09094],[1.19196,41.08801],[1.19594,41.08292],[1.19228,41.08526],[1.1866,41.08106],[1.17965,41.07051],[1.18111,41.06401],[1.17047,41.05467],[1.16077,41.0558],[1.16206,41.05859],[1.15819,41.06379],[1.14758,41.06535],[1.14911,41.0675],[1.14401,41.07187],[1.12846,41.07492],[1.08446,41.06383],[1.06833,41.06575],[1.06058,41.05999],[1.06469,41.06532],[1.05882,41.06448],[1.06207,41.06254],[1.04626,41.06306],[1.0038,41.04335],[0.99123,41.04269],[0.98121,41.03779],[0.94234,41.00778]],[[1.24066,41.10716],[1.24718,41.10581],[1.2491,41.10864],[1.2434,41.10985],[1.24066,41.10716]]],[[[1.03699,41.05785],[1.03701,41.05767],[1.03623,41.05769],[1.03699,41.05785]]],[[[1.0415,41.05953],[1.04189,41.05984],[1.04203,41.0598],[1.0415,41.05953]]],[[[1.11327,41.07038],[1.11407,41.07074],[1.11421,41.07067],[1.11327,41.07038]]]]}},{"type":"Feature","properties":{"codigo_ambito":"AT04","ambito":"Terres de l'Ebre"},"geometry":{"type":"MultiPolygon","coordinates":[[[[0.59255,40.61359],[0.54786,40.57407],[0.55214,40.57286],[0.55139,40.56993],[0.55643,40.57148],[0.55136,40.5697],[0.54728,40.57301],[0.53823,40.56763],[0.53034,40.55149],[0.5342,40.55191],[0.52263,40.54313],[0.51471,40.52294],[0.46398,40.53696],[0.43616,40.54959],[0.43442,40.56705],[0.44324,40.5787],[0.43276,40.57933],[0.4056,40.59479],[0.40194,40.60277],[0.38711,40.60664],[0.33683,40.60882],[0.31506,40.61413],[0.29939,40.6249],[0.29269,40.62323],[0.28186,40.62799],[0.26665,40.64358],[0.2692,40.64849],[0.26782,40.65851],[0.27548,40.67018],[0.28323,40.67312],[0.29204,40.68813],[0.26084,40.70576],[0.24204,40.70018],[0.23609,40.70165],[0.22737,40.71495],[0.22463,40.72556],[0.22638,40.73313],[0.19765,40.72453],[0.19104,40.7311],[0.18173,40.72815],[0.17025,40.73274],[0.15908,40.75029],[0.17454,40.74115],[0.17425,40.74986],[0.17784,40.75484],[0.19001,40.75049],[0.19547,40.7579],[0.20315,40.75945],[0.21212,40.76759],[0.22794,40.76741],[0.23505,40.77658],[0.23413,40.78696],[0.24499,40.79198],[0.25059,40.79852],[0.25876,40.80019],[0.26579,40.81339],[0.27914,40.82121],[0.25998,40.83841],[0.25356,40.8543],[0.25545,40.87402],[0.23861,40.88449],[0.246,40.88914],[0.25128,40.90342],[0.24848,40.90937],[0.25435,40.92028],[0.26026,40.92795],[0.2667,40.92829],[0.27382,40.93552],[0.27263,40.9457],[0.28134,40.95231],[0.28422,40.96431],[0.29356,40.97086],[0.28974,40.97403],[0.282,40.97276],[0.28116,40.98666],[0.26837,40.9982],[0.27473,41.00664],[0.25885,41.01409],[0.26188,41.01922],[0.27686,41.0178],[0.27992,41.01945],[0.2784,41.02164],[0.25893,41.02858],[0.24606,41.04142],[0.24289,41.04058],[0.24446,41.03647],[0.24194,41.03441],[0.23223,41.03484],[0.22988,41.03998],[0.23484,41.0451],[0.23239,41.04732],[0.22153,41.04169],[0.21809,41.0435],[0.21741,41.04732],[0.22943,41.05223],[0.23032,41.05683],[0.21894,41.06129],[0.21739,41.06664],[0.22071,41.0713],[0.21626,41.07756],[0.2196,41.08329],[0.20064,41.08483],[0.20046,41.10218],[0.20861,41.11648],[0.20096,41.12617],[0.21957,41.13189],[0.21399,41.13716],[0.23782,41.12988],[0.24855,41.13004],[0.25617,41.14296],[0.25302,41.14992],[0.27216,41.14856],[0.30199,41.16098],[0.3033,41.16453],[0.30043,41.16711],[0.30485,41.17182],[0.30624,41.1856],[0.32121,41.22405],[0.33105,41.22235],[0.34077,41.231],[0.36115,41.22522],[0.36451,41.22792],[0.36421,41.23855],[0.38172,41.23663],[0.37362,41.24834],[0.37782,41.25262],[0.37988,41.27101],[0.38569,41.27855],[0.42349,41.2743],[0.43253,41.27594],[0.43592,41.29723],[0.43225,41.31166],[0.43462,41.3203],[0.46162,41.33507],[0.48025,41.32177],[0.48099,41.31743],[0.49827,41.30008],[0.50314,41.28978],[0.52621,41.2902],[0.53018,41.29916],[0.54301,41.31262],[0.54549,41.32275],[0.55448,41.32659],[0.57419,41.31814],[0.58085,41.31989],[0.58244,41.31087],[0.59706,41.29345],[0.61947,41.291],[0.62819,41.29086],[0.63627,41.29748],[0.65727,41.30153],[0.67073,41.30972],[0.75141,41.31816],[0.75023,41.31161],[0.73035,41.30952],[0.71367,41.30249],[0.70784,41.28901],[0.69592,41.28166],[0.70123,41.26025],[0.69432,41.25696],[0.69248,41.25031],[0.68512,41.24523],[0.68866,41.23423],[0.68583,41.22975],[0.687,41.22446],[0.70477,41.2161],[0.68849,41.20249],[0.65857,41.18548],[0.67464,41.17354],[0.6776,41.16275],[0.69551,41.14171],[0.69747,41.13423],[0.69243,41.13179],[0.71282,41.117],[0.71104,41.11533],[0.71474,41.10743],[0.71238,41.10521],[0.73295,41.1027],[0.74868,41.09136],[0.75134,41.08612],[0.76043,41.08449],[0.76677,41.09432],[0.77047,41.08378],[0.78684,41.07852],[0.7922,41.07121],[0.80505,41.06681],[0.81437,41.06703],[0.82367,41.07694],[0.82046,41.08951],[0.82623,41.09781],[0.8429,41.09982],[0.85033,41.09437],[0.8614,41.09343],[0.87318,41.08383],[0.87025,41.07347],[0.86725,41.07409],[0.8693,41.0847],[0.8636,41.08663],[0.85357,41.07886],[0.85748,41.06149],[0.85223,41.0563],[0.83546,41.05263],[0.81495,41.06182],[0.79818,41.04156],[0.7829,41.03099],[0.7843,41.01701],[0.77467,40.99715],[0.79266,40.97262],[0.79868,40.96859],[0.80343,40.95298],[0.82079,40.94231],[0.81882,40.94073],[0.85731,40.93532],[0.85199,40.93137],[0.85272,40.92996],[0.85078,40.92622],[0.8515,40.92963],[0.83743,40.91909],[0.83669,40.91476],[0.8358,40.91355],[0.83633,40.91506],[0.83361,40.916],[0.83384,40.91173],[0.82698,40.90833],[0.82679,40.9033],[0.81688,40.89196],[0.80736,40.88706],[0.80285,40.8774],[0.80498,40.88303],[0.80203,40.88256],[0.79185,40.86643],[0.77015,40.85793],[0.76259,40.84648],[0.75207,40.8463],[0.74483,40.83833],[0.74134,40.82336],[0.73501,40.82383],[0.73213,40.81855],[0.71309,40.81188],[0.71066,40.80746],[0.71151,40.81214],[0.70669,40.80998],[0.69958,40.80074],[0.7096,40.78613],[0.73742,40.76661],[0.73909,40.76839],[0.74017,40.76622],[0.74958,40.76443],[0.7503,40.76362],[0.75417,40.76304],[0.75464,40.76447],[0.75532,40.76291],[0.76276,40.76182],[0.76942,40.76245],[0.77819,40.7665],[0.77711,40.76876],[0.78467,40.76992],[0.76789,40.77868],[0.73257,40.78895],[0.73575,40.79125],[0.72527,40.78784],[0.7298,40.79114],[0.74487,40.79367],[0.76376,40.79286],[0.77756,40.78516],[0.79612,40.76343],[0.82794,40.73421],[0.84509,40.73074],[0.86238,40.73681],[0.86632,40.73026],[0.87175,40.73056],[0.87439,40.72031],[0.86507,40.69543],[0.84361,40.6779],[0.75364,40.63821],[0.69549,40.57555],[0.67739,40.5633],[0.66243,40.55771],[0.63044,40.55097],[0.61572,40.55225],[0.60422,40.55765],[0.59631,40.56573],[0.59172,40.57895],[0.60219,40.57466],[0.6114,40.57813],[0.61837,40.57201],[0.61642,40.57869],[0.61526,40.57894],[0.61803,40.58576],[0.62959,40.5817],[0.63074,40.57819],[0.63396,40.57643],[0.64845,40.57262],[0.64589,40.57683],[0.64761,40.57606],[0.64988,40.57725],[0.64993,40.58112],[0.65443,40.57824],[0.65712,40.57826],[0.65418,40.58538],[0.66016,40.59144],[0.67243,40.59293],[0.69736,40.58891],[0.70793,40.59103],[0.74581,40.63659],[0.73358,40.6407],[0.70801,40.63634],[0.69493,40.63673],[0.69252,40.63931],[0.69285,40.63636],[0.6831,40.63624],[0.6641,40.62724],[0.6657,40.62544],[0.6053,40.62318],[0.60039,40.62162],[0.60029,40.62079],[0.60183,40.62198],[0.60382,40.62259],[0.60492,40.62274],[0.60787,40.62295],[0.60852,40.61663],[0.60409,40.61631],[0.60708,40.61784],[0.60653,40.62277],[0.60186,40.62195],[0.60332,40.61823],[0.59823,40.61994],[0.60246,40.61701],[0.60247,40.61624],[0.60011,40.61459],[0.6018,40.61607],[0.59858,40.61522],[0.59853,40.61909],[0.5932,40.6163],[0.60452,40.60922],[0.59255,40.61359]]],[[[0.61495,40.57655],[0.61487,40.57705],[0.61512,40.57681],[0.61495,40.57655]]],[[[0.61556,40.5764],[0.61532,40.57741],[0.61628,40.57665],[0.61556,40.5764]]],[[[0.61623,40.57714],[0.61614,40.57763],[0.61639,40.57768],[0.61623,40.57714]]],[[[0.63592,40.58116],[0.63571,40.57755],[0.6339,40.57819],[0.63345,40.57982],[0.63592,40.58116]]],[[[0.63806,40.5793],[0.63847,40.57986],[0.63814,40.57927],[0.63806,40.5793]]],[[[0.63873,40.58023],[0.63845,40.58066],[0.63885,40.58026],[0.63873,40.58023]]],[[[0.63149,40.58078],[0.62988,40.58151],[0.63177,40.58117],[0.63149,40.58078]]],[[[0.63437,40.58114],[0.63431,40.58155],[0.63479,40.58142],[0.63437,40.58114]]],[[[0.63346,40.58123],[0.63357,40.58179],[0.63384,40.58137],[0.63346,40.58123]]],[[[0.6385,40.58135],[0.6384,40.58173],[0.63858,40.58134],[0.6385,40.58135]]],[[[0.637,40.58166],[0.63667,40.58163],[0.63677,40.58193],[0.637,40.58166]]],[[[0.63399,40.58146],[0.63403,40.58176],[0.63405,40.58146],[0.63399,40.58146]]],[[[0.63214,40.58123],[0.63294,40.58212],[0.63308,40.58198],[0.63214,40.58123]]],[[[0.63897,40.58179],[0.63863,40.58215],[0.63921,40.58179],[0.63897,40.58179]]],[[[0.63486,40.58163],[0.6341,40.58217],[0.63409,40.58236],[0.63486,40.58163]]],[[[0.63482,40.58187],[0.63571,40.58226],[0.63596,40.5815],[0.63482,40.58187]]],[[[0.64463,40.5742],[0.64415,40.57462],[0.64482,40.57414],[0.64463,40.5742]]],[[[0.64678,40.57463],[0.6461,40.57511],[0.64619,40.57538],[0.64678,40.57463]]],[[[0.64229,40.57501],[0.64175,40.5755],[0.6417,40.57564],[0.64229,40.57501]]],[[[0.64138,40.57522],[0.64085,40.57559],[0.64086,40.57565],[0.64138,40.57522]]],[[[0.64285,40.57546],[0.6427,40.57518],[0.64162,40.57647],[0.64285,40.57546]]],[[[0.64187,40.57615],[0.64177,40.57592],[0.6414,40.57649],[0.64187,40.57615]]],[[[0.64567,40.57655],[0.6441,40.5763],[0.64394,40.57662],[0.64567,40.57655]]],[[[0.64358,40.57597],[0.64255,40.5767],[0.64252,40.57692],[0.64358,40.57597]]],[[[0.6421,40.57703],[0.64184,40.57692],[0.64179,40.57717],[0.6421,40.57703]]],[[[0.64848,40.57669],[0.64872,40.57706],[0.6487,40.57682],[0.64848,40.57669]]],[[[0.64328,40.57716],[0.64344,40.57641],[0.64195,40.57854],[0.64328,40.57716]]],[[[0.6491,40.57755],[0.64875,40.57798],[0.64929,40.57763],[0.6491,40.57755]]],[[[0.64693,40.57811],[0.64648,40.57876],[0.64648,40.57886],[0.64693,40.57811]]],[[[0.64879,40.57863],[0.64833,40.57888],[0.64819,40.57917],[0.64879,40.57863]]],[[[0.64368,40.57883],[0.64357,40.57919],[0.6441,40.57844],[0.64368,40.57883]]],[[[0.64661,40.57836],[0.64535,40.57888],[0.64544,40.57934],[0.64661,40.57836]]],[[[0.64908,40.57893],[0.64803,40.57989],[0.64802,40.58017],[0.64908,40.57893]]],[[[0.64934,40.57942],[0.64844,40.58012],[0.64846,40.58027],[0.64934,40.57942]]],[[[0.64941,40.57977],[0.64903,40.58016],[0.64902,40.58029],[0.64941,40.57977]]],[[[0.64274,40.58008],[0.64235,40.58078],[0.64307,40.58006],[0.64274,40.58008]]],[[[0.6417,40.58218],[0.64188,40.58246],[0.64221,40.58167],[0.6417,40.58218]]],[[[0.64521,40.58242],[0.64522,40.58332],[0.64604,40.58272],[0.64521,40.58242]]],[[[0.64925,40.58341],[0.65003,40.58309],[0.64975,40.58287],[0.64925,40.58341]]],[[[0.64312,40.58346],[0.64281,40.58361],[0.64368,40.58365],[0.64312,40.58346]]],[[[0.64452,40.58418],[0.64537,40.58357],[0.64408,40.58391],[0.64452,40.58418]]],[[[0.64795,40.58338],[0.64768,40.58482],[0.64848,40.58433],[0.64795,40.58338]]],[[[0.64626,40.58467],[0.64684,40.58408],[0.64591,40.58413],[0.64626,40.58467]]],[[[0.6524,40.58523],[0.65382,40.58359],[0.64898,40.58473],[0.6524,40.58523]]],[[[0.65607,40.57965],[0.65406,40.57972],[0.65322,40.58137],[0.65607,40.57965]]],[[[0.65297,40.58131],[0.65186,40.58142],[0.65143,40.58189],[0.65297,40.58131]]],[[[0.65223,40.58214],[0.65179,40.58245],[0.65257,40.58207],[0.65223,40.58214]]],[[[0.65579,40.58132],[0.65446,40.58303],[0.65347,40.58337],[0.6547,40.58357],[0.65579,40.58132]]],[[[0.71723,40.60276],[0.71656,40.60328],[0.71725,40.60299],[0.71723,40.60276]]],[[[0.70768,40.63528],[0.70726,40.63534],[0.70763,40.63561],[0.70768,40.63528]]],[[[0.73999,40.63727],[0.7392,40.63826],[0.74027,40.63742],[0.73999,40.63727]]],[[[0.77067,40.76309],[0.7706,40.76337],[0.77112,40.76331],[0.77067,40.76309]]],[[[0.75866,40.76294],[0.75807,40.76306],[0.75797,40.76376],[0.75866,40.76294]]],[[[0.75212,40.76373],[0.75039,40.76369],[0.75043,40.76417],[0.75212,40.76373]]],[[[0.76803,40.76403],[0.76761,40.76477],[0.7681,40.76403],[0.76803,40.76403]]],[[[0.72276,40.77806],[0.72274,40.77855],[0.72289,40.77812],[0.72276,40.77806]]],[[[0.73488,40.78587],[0.73384,40.78606],[0.73384,40.78613],[0.73488,40.78587]]],[[[0.73454,40.78715],[0.73398,40.78701],[0.73368,40.7875],[0.73454,40.78715]]],[[[0.73328,40.78722],[0.73075,40.78657],[0.72895,40.78787],[0.73171,40.78921],[0.73328,40.78722]]]]}},{"type":"Feature","properties":{"codigo_ambito":"AT05","ambito":"Ponent"},"geometry":{"type":"Polygon","coordinates":[[[0.43225,41.31166],[0.43592,41.29723],[0.43245,41.27588],[0.42349,41.2743],[0.38569,41.27855],[0.36547,41.30372],[0.37032,41.31215],[0.3679,41.31928],[0.35188,41.32417],[0.34861,41.32791],[0.37442,41.35212],[0.3583,41.37199],[0.32002,41.39419],[0.34342,41.41489],[0.34841,41.42673],[0.34834,41.43875],[0.35669,41.45145],[0.34509,41.46212],[0.34279,41.48396],[0.34782,41.4879],[0.3719,41.48474],[0.39651,41.49036],[0.41909,41.51781],[0.44617,41.54301],[0.43946,41.55565],[0.4301,41.56511],[0.43306,41.5688],[0.43133,41.581],[0.43616,41.58489],[0.42881,41.6022],[0.40221,41.59262],[0.34979,41.59955],[0.3468,41.62239],[0.35825,41.63197],[0.34967,41.63648],[0.333,41.65978],[0.3263,41.66256],[0.32832,41.68153],[0.34154,41.69606],[0.36821,41.71365],[0.36888,41.72414],[0.3727,41.72345],[0.38521,41.73962],[0.39524,41.73182],[0.39906,41.75584],[0.44814,41.76471],[0.46982,41.76543],[0.47454,41.78862],[0.48852,41.80504],[0.49487,41.80434],[0.50194,41.81437],[0.51553,41.82209],[0.54199,41.82012],[0.55221,41.83436],[0.5514,41.84351],[0.55536,41.85293],[0.58003,41.85081],[0.58196,41.85726],[0.57989,41.86317],[0.60678,41.871],[0.60832,41.87836],[0.59208,41.8848],[0.60091,41.90817],[0.59498,41.91763],[0.60759,41.91923],[0.56264,41.93269],[0.56142,41.93794],[0.57818,41.95757],[0.58607,41.96201],[0.58701,41.9665],[0.59308,41.96871],[0.60558,41.95999],[0.60441,41.96317],[0.61166,41.97135],[0.6112,41.97799],[0.62153,41.99],[0.63886,41.99474],[0.64311,41.98288],[0.64662,41.99626],[0.65824,42.00336],[0.66134,42.01041],[0.66162,42.01462],[0.65726,42.01483],[0.65247,42.0232],[0.65728,42.03101],[0.65689,42.0401],[0.66627,42.04137],[0.67099,42.04641],[0.66866,42.05476],[0.6712,42.06305],[0.68028,42.07601],[0.69407,42.05929],[0.71271,42.05235],[0.74294,42.05258],[0.74614,42.04636],[0.76341,42.03998],[0.79685,42.04195],[0.86409,42.03576],[0.88839,42.04321],[0.88986,42.03641],[0.92062,42.02205],[1.00814,42.02177],[1.02165,42.03392],[1.02805,42.03095],[1.06929,42.03637],[1.07543,42.00589],[1.08293,42.00792],[1.09211,42.02795],[1.09035,42.03369],[1.07703,42.04562],[1.07797,42.0488],[1.09435,42.05812],[1.10903,42.08514],[1.11973,42.08932],[1.13669,42.11557],[1.14291,42.11836],[1.15213,42.11593],[1.15742,42.12292],[1.16606,42.12305],[1.1676,42.11884],[1.16241,42.10324],[1.16674,42.08234],[1.20004,42.09],[1.20656,42.07925],[1.21082,42.07656],[1.22097,42.0796],[1.22339,42.07581],[1.22143,42.07195],[1.23664,42.06508],[1.242,42.0529],[1.2355,42.04767],[1.24099,42.03644],[1.23653,42.02036],[1.25263,42.00548],[1.26147,42.00294],[1.26368,41.99761],[1.25696,41.98174],[1.26228,41.97267],[1.2527,41.94452],[1.24803,41.93988],[1.26001,41.94247],[1.2856,41.95851],[1.3118,41.95034],[1.31354,41.94714],[1.30985,41.93654],[1.29539,41.92157],[1.30283,41.92348],[1.31143,41.91931],[1.31873,41.90676],[1.31872,41.89296],[1.32296,41.88955],[1.33533,41.90083],[1.34087,41.89334],[1.34296,41.86874],[1.34207,41.8577],[1.3202,41.8303],[1.32964,41.82299],[1.35233,41.81912],[1.35754,41.81463],[1.37434,41.81666],[1.36036,41.79017],[1.37358,41.77869],[1.39457,41.80015],[1.4039,41.80534],[1.40247,41.78622],[1.40748,41.7846],[1.40737,41.78136],[1.41393,41.77652],[1.41061,41.77504],[1.40893,41.75827],[1.40288,41.74556],[1.4206,41.73782],[1.42447,41.73267],[1.4192,41.73262],[1.38252,41.70668],[1.40021,41.70432],[1.39581,41.69565],[1.40393,41.69448],[1.40422,41.68616],[1.42329,41.68405],[1.4155,41.6747],[1.42412,41.66938],[1.433,41.65153],[1.45072,41.64635],[1.4508,41.63988],[1.44367,41.63483],[1.43115,41.63409],[1.43057,41.62982],[1.41321,41.63534],[1.3915,41.63433],[1.38632,41.62612],[1.36988,41.62139],[1.36959,41.61733],[1.3605,41.6136],[1.36875,41.61045],[1.37488,41.61181],[1.37497,41.60753],[1.39356,41.59971],[1.40733,41.60034],[1.40777,41.59074],[1.39569,41.58507],[1.39227,41.5788],[1.39501,41.56768],[1.40223,41.56471],[1.40319,41.55788],[1.38445,41.55587],[1.38013,41.56143],[1.37086,41.5653],[1.32885,41.56697],[1.30424,41.57146],[1.29405,41.56639],[1.27091,41.57205],[1.25869,41.56756],[1.25534,41.57125],[1.21969,41.56972],[1.21574,41.56716],[1.21651,41.56217],[1.21263,41.55907],[1.21069,41.54869],[1.19769,41.54371],[1.16832,41.54027],[1.16648,41.53714],[1.17619,41.53377],[1.17043,41.53097],[1.17007,41.51924],[1.16542,41.51772],[1.16472,41.50849],[1.17575,41.50023],[1.17978,41.48843],[1.13086,41.47732],[1.12964,41.47425],[1.10941,41.46723],[1.10458,41.47535],[1.08614,41.4783],[1.03945,41.50138],[1.03833,41.49684],[1.04851,41.48754],[1.03746,41.47999],[1.05667,41.46642],[1.06885,41.464],[1.07508,41.45917],[1.06329,41.45215],[1.05542,41.44195],[1.04641,41.44065],[1.03852,41.42156],[1.03138,41.41954],[1.02772,41.40926],[1.01635,41.40397],[1.00347,41.40458],[0.99319,41.39404],[0.992,41.38899],[0.98196,41.39175],[0.97351,41.3808],[0.97263,41.37329],[0.96245,41.36579],[0.96247,41.35998],[0.96633,41.35858],[0.96435,41.35526],[0.94559,41.35004],[0.91149,41.3494],[0.86327,41.33811],[0.84716,41.35473],[0.845,41.3623],[0.84006,41.36181],[0.82913,41.35725],[0.82562,41.33996],[0.81956,41.32887],[0.81526,41.32695],[0.76236,41.33447],[0.75056,41.32459],[0.74982,41.31733],[0.67073,41.30972],[0.65727,41.30153],[0.63627,41.29748],[0.62819,41.29086],[0.59706,41.29345],[0.58244,41.31087],[0.58085,41.31989],[0.57419,41.31814],[0.55448,41.32659],[0.54549,41.32275],[0.54301,41.31262],[0.53018,41.29916],[0.52595,41.29015],[0.50314,41.28978],[0.49827,41.30008],[0.48099,41.31743],[0.48025,41.32177],[0.46162,41.33507],[0.43533,41.32131],[0.43225,41.31166]]]}},{"type":"Feature","properties":{"codigo_ambito":"AT06","ambito":"Comarques Centrals"},"geometry":{"type":"MultiPolygon","coordinates":[[[[1.48805,41.64031],[1.49121,41.63054],[1.48697,41.6263],[1.45575,41.63184],[1.44891,41.63667],[1.45072,41.64635],[1.45535,41.64253],[1.48805,41.64031]]],[[[1.72497,41.63864],[1.71702,41.63556],[1.70176,41.61886],[1.69131,41.6223],[1.68106,41.61947],[1.66501,41.63916],[1.66366,41.64432],[1.66867,41.64959],[1.66009,41.65551],[1.64222,41.65409],[1.64102,41.64629],[1.63774,41.64587],[1.62768,41.66031],[1.63392,41.66422],[1.6342,41.66797],[1.62345,41.67406],[1.62507,41.67936],[1.61845,41.68225],[1.62131,41.69025],[1.61576,41.69595],[1.58985,41.68743],[1.58261,41.68822],[1.57225,41.68225],[1.54497,41.68876],[1.5337,41.68755],[1.52771,41.67274],[1.52728,41.6621],[1.52997,41.6603],[1.52363,41.65913],[1.51672,41.6624],[1.51645,41.6579],[1.50246,41.65978],[1.50567,41.64853],[1.48692,41.64433],[1.46901,41.65234],[1.44237,41.65763],[1.43091,41.65529],[1.42412,41.66938],[1.4155,41.6747],[1.42329,41.68405],[1.40422,41.68616],[1.40393,41.69448],[1.39581,41.69565],[1.40021,41.70432],[1.38252,41.70668],[1.4192,41.73262],[1.42447,41.73267],[1.4206,41.73782],[1.40288,41.74556],[1.40893,41.75827],[1.41061,41.77504],[1.41393,41.77652],[1.40737,41.78136],[1.40748,41.7846],[1.40247,41.78622],[1.40419,41.80455],[1.39457,41.80015],[1.37358,41.77869],[1.36036,41.79017],[1.37434,41.81666],[1.35754,41.81463],[1.35233,41.81912],[1.32964,41.82299],[1.3202,41.8303],[1.34324,41.85983],[1.34087,41.89334],[1.33533,41.90083],[1.32296,41.88955],[1.31872,41.89296],[1.31873,41.90676],[1.31143,41.91931],[1.30283,41.92348],[1.29539,41.92157],[1.30985,41.93654],[1.31352,41.94782],[1.30847,41.95296],[1.29346,41.95548],[1.29083,41.96151],[1.29875,41.98046],[1.30977,41.98821],[1.30481,41.99192],[1.30696,41.99406],[1.33281,41.99089],[1.35332,41.99479],[1.36263,42.00002],[1.35563,42.02264],[1.36036,42.03008],[1.35835,42.03952],[1.3641,42.04295],[1.35946,42.047],[1.35777,42.07749],[1.34984,42.07302],[1.33456,42.07698],[1.32348,42.09493],[1.32684,42.11513],[1.36199,42.12997],[1.36658,42.13937],[1.35757,42.14795],[1.37846,42.15478],[1.39623,42.15063],[1.4244,42.16006],[1.43167,42.1587],[1.4461,42.14608],[1.45165,42.14716],[1.52038,42.18437],[1.52794,42.192],[1.5277,42.2044],[1.55284,42.21004],[1.59552,42.20045],[1.61384,42.20101],[1.61019,42.21267],[1.62546,42.23249],[1.62697,42.23907],[1.63862,42.24741],[1.65847,42.25344],[1.68461,42.25644],[1.68544,42.26033],[1.69432,42.26399],[1.69007,42.27709],[1.68367,42.27602],[1.67042,42.28147],[1.67565,42.28539],[1.70922,42.28621],[1.72305,42.28325],[1.7334,42.28387],[1.74087,42.29091],[1.76213,42.29332],[1.77806,42.29053],[1.7972,42.29463],[1.79802,42.29875],[1.80429,42.3019],[1.83082,42.30054],[1.85158,42.31017],[1.87909,42.31294],[1.89298,42.31852],[1.89292,42.32109],[1.90278,42.32296],[1.91405,42.31823],[1.9374,42.31712],[1.94315,42.30837],[1.94955,42.31534],[1.96939,42.30325],[1.98375,42.29901],[2.01872,42.31033],[2.07019,42.28962],[2.06764,42.28379],[2.05536,42.28014],[2.04266,42.26952],[2.04015,42.26002],[2.029,42.25357],[2.02968,42.24479],[2.0248,42.23262],[2.01753,42.23226],[2.03006,42.21563],[2.03942,42.22077],[2.05311,42.21945],[2.05026,42.21471],[2.05285,42.19742],[2.06342,42.19152],[2.06152,42.17959],[2.05712,42.17476],[2.03753,42.17856],[2.03149,42.17636],[2.03067,42.17058],[2.0234,42.16481],[2.00466,42.16246],[2.00401,42.16646],[1.9959,42.17201],[2.00533,42.18271],[1.99767,42.19134],[2.00773,42.19364],[1.96465,42.19883],[1.96535,42.17954],[1.98816,42.18148],[1.99161,42.17846],[1.99046,42.17139],[2.00497,42.15493],[2.00417,42.14971],[2.02765,42.15282],[2.03327,42.1504],[2.03736,42.14277],[2.05132,42.14309],[2.06115,42.13516],[2.07058,42.14173],[2.09411,42.14192],[2.09939,42.13983],[2.09992,42.12506],[2.12585,42.11241],[2.13734,42.12078],[2.14357,42.13092],[2.18092,42.13525],[2.18648,42.13398],[2.18873,42.12429],[2.20053,42.12397],[2.20444,42.12549],[2.20176,42.12855],[2.20372,42.13146],[2.20896,42.12722],[2.21298,42.1289],[2.20743,42.13482],[2.21091,42.13682],[2.20988,42.13959],[2.23599,42.14378],[2.24472,42.13862],[2.25861,42.13912],[2.26987,42.14501],[2.27243,42.14042],[2.28576,42.14005],[2.29475,42.14929],[2.27755,42.14991],[2.29108,42.15673],[2.28195,42.15713],[2.27707,42.1617],[2.26489,42.16418],[2.2958,42.16569],[2.3039,42.15908],[2.32722,42.16256],[2.37117,42.1761],[2.37574,42.16951],[2.3788,42.17092],[2.38599,42.16687],[2.38447,42.1635],[2.37784,42.16441],[2.35789,42.15696],[2.34924,42.14768],[2.35077,42.13767],[2.38106,42.12368],[2.37318,42.11582],[2.37658,42.10546],[2.40017,42.10276],[2.39464,42.0953],[2.39688,42.08761],[2.3945,42.08676],[2.41132,42.06881],[2.42687,42.06128],[2.45821,42.07912],[2.46688,42.07394],[2.47886,42.0752],[2.48344,42.06759],[2.49055,42.06841],[2.49491,42.06151],[2.49614,42.05901],[2.48128,42.05074],[2.4928,42.03834],[2.50609,42.0323],[2.50306,42.0235],[2.49467,42.01744],[2.49981,42.00787],[2.49905,42.0015],[2.48322,41.99714],[2.47973,41.99945],[2.46881,41.99374],[2.48802,41.98485],[2.48005,41.98249],[2.48021,41.97873],[2.4727,41.97535],[2.47162,41.96919],[2.46799,41.96812],[2.45225,41.96589],[2.44934,41.96989],[2.44134,41.96806],[2.44276,41.97161],[2.43917,41.97339],[2.42728,41.96895],[2.44144,41.95991],[2.44211,41.95449],[2.43676,41.94797],[2.44238,41.94143],[2.4571,41.94345],[2.47018,41.93914],[2.4791,41.93084],[2.47895,41.91624],[2.47482,41.91481],[2.46814,41.90423],[2.455,41.89596],[2.44598,41.89442],[2.44376,41.88548],[2.45297,41.87963],[2.45375,41.86966],[2.44615,41.85981],[2.44103,41.86023],[2.43826,41.85494],[2.43283,41.85311],[2.42257,41.85471],[2.41812,41.85068],[2.42426,41.83947],[2.41171,41.83039],[2.40739,41.82307],[2.41841,41.8045],[2.40473,41.8017],[2.38698,41.80519],[2.38268,41.8088],[2.37563,41.79693],[2.36222,41.78988],[2.36607,41.77979],[2.36339,41.76833],[2.33436,41.76365],[2.32847,41.77575],[2.32819,41.78879],[2.3209,41.78783],[2.30511,41.79798],[2.29874,41.79736],[2.29074,41.79256],[2.27376,41.77153],[2.26621,41.76659],[2.25389,41.76465],[2.24983,41.75962],[2.25079,41.74938],[2.26048,41.74537],[2.25793,41.73818],[2.26236,41.73515],[2.26235,41.73064],[2.2559,41.7282],[2.25532,41.73077],[2.24058,41.72961],[2.23617,41.73207],[2.21357,41.72688],[2.18951,41.73255],[2.18447,41.74267],[2.18863,41.75561],[2.18601,41.78918],[2.17061,41.80155],[2.16288,41.79848],[2.16039,41.79316],[2.15005,41.79529],[2.13873,41.79233],[2.12829,41.78133],[2.12462,41.78336],[2.09413,41.77519],[2.08827,41.77867],[2.08137,41.78944],[2.06655,41.78914],[2.05864,41.79346],[2.04136,41.78438],[2.04528,41.7708],[2.04228,41.76605],[2.05356,41.76076],[2.04346,41.75679],[2.04628,41.7494],[2.03771,41.74333],[2.03485,41.73716],[2.02867,41.73584],[2.02653,41.72679],[2.01467,41.7246],[2.02227,41.70825],[2.02218,41.69864],[2.00913,41.69127],[2.01281,41.6807],[2.00463,41.67553],[2.01077,41.66668],[2.00884,41.65618],[1.99017,41.65442],[1.98293,41.64817],[1.97145,41.64883],[1.96112,41.64419],[1.94213,41.64887],[1.94204,41.65632],[1.93389,41.66322],[1.9303,41.658],[1.91994,41.66579],[1.90659,41.66424],[1.90098,41.65712],[1.89048,41.65292],[1.88894,41.64827],[1.893,41.61718],[1.87323,41.61272],[1.86414,41.61786],[1.86079,41.60963],[1.86331,41.59228],[1.85081,41.59066],[1.82723,41.59229],[1.8115,41.60537],[1.80618,41.60455],[1.78731,41.61099],[1.78521,41.6172],[1.78955,41.63714],[1.77744,41.64666],[1.77979,41.65349],[1.77445,41.65463],[1.75702,41.64412],[1.72838,41.64597],[1.72497,41.63864]],[[1.3174,41.98202],[1.32235,41.98617],[1.31941,41.99157],[1.31314,41.98742],[1.3174,41.98202]],[[2.0208,42.12972],[2.02081,42.12704],[2.00238,42.12534],[2.00762,42.10648],[2.01657,42.10908],[2.0208,42.11982],[2.02948,42.12108],[2.0295,42.12776],[2.0208,42.12972]]]]}},{"type":"Feature","properties":{"codigo_ambito":"AT07","ambito":"Alt Pirineu i Aran"},"geometry":{"type":"MultiPolygon","coordinates":[[[[0.81952,42.04018],[0.76341,42.03998],[0.74614,42.04636],[0.74222,42.05278],[0.71013,42.05274],[0.69089,42.06167],[0.68028,42.07601],[0.68503,42.09242],[0.69624,42.09936],[0.70225,42.11673],[0.69669,42.12868],[0.69564,42.15149],[0.71396,42.16308],[0.69781,42.17245],[0.70213,42.18734],[0.70914,42.19684],[0.70791,42.20405],[0.71347,42.21236],[0.7143,42.22386],[0.72476,42.23664],[0.72564,42.24334],[0.73434,42.25074],[0.73939,42.26959],[0.73785,42.28237],[0.74369,42.28565],[0.74439,42.30124],[0.75612,42.30935],[0.75467,42.31391],[0.76567,42.32282],[0.74351,42.32792],[0.74105,42.33483],[0.75352,42.34601],[0.77096,42.35032],[0.76033,42.35708],[0.7465,42.35645],[0.72209,42.36656],[0.72509,42.37015],[0.73402,42.3716],[0.73482,42.3762],[0.74251,42.37887],[0.7456,42.3844],[0.7377,42.39836],[0.72646,42.4048],[0.72797,42.40784],[0.73473,42.40787],[0.73461,42.41495],[0.72787,42.42458],[0.71419,42.43364],[0.70713,42.4488],[0.70903,42.45887],[0.6945,42.47623],[0.69013,42.48651],[0.69769,42.48553],[0.70071,42.49544],[0.7134,42.48723],[0.73534,42.50412],[0.74107,42.50493],[0.72144,42.51597],[0.72381,42.52067],[0.72113,42.5244],[0.7354,42.54088],[0.75305,42.53382],[0.7413,42.54408],[0.75771,42.56935],[0.76083,42.59216],[0.76757,42.61159],[0.74496,42.61514],[0.73706,42.61287],[0.70779,42.62103],[0.69919,42.62837],[0.70143,42.64036],[0.69546,42.65212],[0.69576,42.65827],[0.68466,42.65947],[0.67378,42.67723],[0.66004,42.6888],[0.66216,42.69143],[0.67675,42.69082],[0.67395,42.69892],[0.68253,42.70902],[0.67375,42.7174],[0.68017,42.72325],[0.67037,42.73131],[0.66082,42.75174],[0.64731,42.75145],[0.63928,42.75487],[0.64636,42.75618],[0.65042,42.76495],[0.66722,42.77511],[0.65379,42.77732],[0.64506,42.78312],[0.65047,42.78538],[0.66046,42.79844],[0.66989,42.80241],[0.67077,42.80585],[0.66497,42.81379],[0.66995,42.82431],[0.66272,42.82832],[0.65909,42.83815],[0.67812,42.84768],[0.67824,42.85479],[0.69159,42.85512],[0.70956,42.86132],[0.7246,42.85858],[0.7345,42.85436],[0.73632,42.84895],[0.77726,42.83618],[0.78979,42.83646],[0.80091,42.8406],[0.81144,42.83832],[0.83377,42.8284],[0.85387,42.82684],[0.86867,42.81707],[0.8861,42.81258],[0.92602,42.78945],[0.93311,42.78955],[0.93935,42.79668],[0.96023,42.8059],[0.97762,42.79485],[0.97709,42.79133],[0.9841,42.7867],[1.00546,42.79085],[1.01708,42.78705],[1.04146,42.78612],[1.04384,42.7811],[1.04747,42.78102],[1.07451,42.78368],[1.07887,42.78833],[1.08865,42.77805],[1.10937,42.76999],[1.12882,42.75469],[1.13203,42.75082],[1.13038,42.7407],[1.13438,42.73429],[1.13339,42.72808],[1.17047,42.70793],[1.18807,42.71629],[1.21567,42.72011],[1.22709,42.72621],[1.24731,42.72252],[1.2529,42.71483],[1.27479,42.71874],[1.27876,42.7141],[1.29713,42.71933],[1.3109,42.71818],[1.33232,42.72476],[1.33969,42.71895],[1.35732,42.71946],[1.35781,42.71521],[1.35242,42.71114],[1.35265,42.70082],[1.36702,42.6951],[1.37724,42.69464],[1.38918,42.68708],[1.38747,42.66862],[1.3964,42.66828],[1.40325,42.65923],[1.41376,42.65524],[1.42063,42.62479],[1.42787,42.62023],[1.43699,42.60347],[1.44302,42.60276],[1.44006,42.59426],[1.42735,42.58667],[1.42648,42.5828],[1.43214,42.57535],[1.44341,42.57192],[1.44448,42.56862],[1.42409,42.55694],[1.41364,42.53535],[1.43883,42.54346],[1.45055,42.53989],[1.468,42.50995],[1.44334,42.49522],[1.42556,42.49315],[1.41919,42.4842],[1.43335,42.48187],[1.44103,42.47548],[1.44063,42.46607],[1.44753,42.46007],[1.44117,42.45545],[1.4468,42.44377],[1.44258,42.44471],[1.4524,42.43698],[1.49881,42.43312],[1.51639,42.42885],[1.552,42.43259],[1.55294,42.44338],[1.56023,42.44899],[1.55623,42.45413],[1.56164,42.45822],[1.56745,42.45888],[1.57919,42.44972],[1.58596,42.4606],[1.59737,42.46632],[1.63111,42.46468],[1.65702,42.46822],[1.66251,42.47445],[1.66205,42.49248],[1.66998,42.50419],[1.67948,42.49468],[1.69032,42.49495],[1.70361,42.4898],[1.71137,42.49226],[1.72566,42.50468],[1.7301,42.49239],[1.74615,42.49548],[1.76267,42.48677],[1.79195,42.48551],[1.80461,42.4901],[1.81672,42.48316],[1.82424,42.48567],[1.84178,42.47744],[1.85555,42.46369],[1.85952,42.46247],[1.8647,42.46626],[1.88114,42.45983],[1.88461,42.4498],[1.89117,42.44772],[1.8982,42.45001],[1.9163,42.44624],[1.93272,42.45464],[1.93699,42.45369],[1.94291,42.44445],[1.94096,42.43003],[1.95857,42.42414],[1.95511,42.41161],[1.95972,42.40523],[1.96022,42.39295],[1.96572,42.38067],[1.97242,42.37333],[1.97917,42.3716],[1.98641,42.36193],[2.01607,42.34709],[2.00189,42.34177],[1.98791,42.34354],[1.99137,42.33632],[1.98469,42.33121],[1.96143,42.33202],[1.95535,42.3121],[1.94866,42.3153],[1.94315,42.30837],[1.9374,42.31712],[1.91405,42.31823],[1.90278,42.32296],[1.89292,42.32109],[1.89298,42.31852],[1.87909,42.31294],[1.85158,42.31017],[1.83082,42.30054],[1.80429,42.3019],[1.79802,42.29875],[1.7972,42.29463],[1.77806,42.29053],[1.76213,42.29332],[1.74087,42.29091],[1.7334,42.28387],[1.72305,42.28325],[1.70922,42.28621],[1.67565,42.28539],[1.67042,42.28147],[1.68367,42.27602],[1.69007,42.27709],[1.69432,42.26399],[1.68544,42.26033],[1.68461,42.25644],[1.65847,42.25344],[1.63862,42.24741],[1.62697,42.23907],[1.62546,42.23249],[1.61019,42.21267],[1.61384,42.20101],[1.59552,42.20045],[1.55284,42.21004],[1.5277,42.2044],[1.52794,42.192],[1.52038,42.18437],[1.45165,42.14716],[1.4461,42.14608],[1.43167,42.1587],[1.4244,42.16006],[1.39623,42.15063],[1.37846,42.15478],[1.35757,42.14795],[1.36658,42.13937],[1.36199,42.12997],[1.32684,42.11513],[1.32348,42.09493],[1.33456,42.07698],[1.34984,42.07302],[1.35777,42.07749],[1.35946,42.047],[1.3641,42.04295],[1.35835,42.03952],[1.36036,42.03008],[1.35563,42.02264],[1.36263,42.00002],[1.35332,41.99479],[1.33281,41.99089],[1.30696,41.99406],[1.30481,41.99192],[1.30977,41.98821],[1.29875,41.98046],[1.29086,41.95793],[1.2856,41.95851],[1.25153,41.93942],[1.24803,41.93988],[1.2527,41.94452],[1.26228,41.97267],[1.25798,41.97647],[1.25807,41.98914],[1.26368,41.99761],[1.26147,42.00294],[1.25263,42.00548],[1.23653,42.02036],[1.24099,42.03644],[1.2355,42.04767],[1.242,42.0529],[1.23664,42.06508],[1.22143,42.07195],[1.22339,42.07581],[1.22097,42.0796],[1.21082,42.07656],[1.20656,42.07925],[1.20004,42.09],[1.16674,42.08234],[1.16241,42.10324],[1.1676,42.11884],[1.16606,42.12305],[1.15742,42.12292],[1.15213,42.11593],[1.14291,42.11836],[1.13669,42.11557],[1.11973,42.08932],[1.10918,42.0853],[1.10134,42.07484],[1.09435,42.05812],[1.07869,42.0499],[1.07703,42.04562],[1.09035,42.03369],[1.09211,42.02795],[1.08293,42.00792],[1.07543,42.00589],[1.06929,42.03637],[1.02805,42.03095],[1.02165,42.03392],[1.00814,42.02177],[0.9694,42.02006],[0.91866,42.02233],[0.88986,42.03641],[0.88839,42.04321],[0.86409,42.03576],[0.81952,42.04018]]],[[[1.31314,41.98742],[1.31941,41.99157],[1.32235,41.98617],[1.31758,41.98194],[1.31314,41.98742]]],[[[1.99842,42.48532],[1.98635,42.47486],[1.98736,42.46976],[1.99724,42.46081],[2.01054,42.45586],[2.01439,42.45179],[2.01278,42.44836],[1.98392,42.44674],[1.95983,42.45329],[1.95656,42.45794],[1.96308,42.47871],[1.97055,42.48053],[1.97555,42.48564],[1.97847,42.49459],[1.98963,42.49369],[1.99842,42.48532]]]]}},{"type":"Feature","properties":{"codigo_ambito":"AT08","ambito":"Penedès"},"geometry":{"type":"MultiPolygon","coordinates":[[[[1.59914,41.18882],[1.53362,41.18086],[1.52806,41.17879],[1.5277,41.17679],[1.5257,41.17636],[1.52676,41.1783],[1.52166,41.17888],[1.4957,41.17317],[1.47934,41.19257],[1.47925,41.20627],[1.47677,41.20853],[1.45792,41.20349],[1.43569,41.20238],[1.42608,41.21164],[1.40983,41.21259],[1.3952,41.20557],[1.39156,41.21332],[1.39042,41.22082],[1.39867,41.22108],[1.40632,41.22688],[1.40592,41.23738],[1.42093,41.24858],[1.43512,41.25126],[1.43438,41.255],[1.41881,41.26286],[1.39999,41.26346],[1.40273,41.27082],[1.41034,41.27493],[1.4395,41.2723],[1.43405,41.28104],[1.43601,41.28606],[1.41378,41.28769],[1.39897,41.29228],[1.42395,41.30463],[1.42546,41.30816],[1.41473,41.31739],[1.40363,41.32125],[1.40208,41.32501],[1.46282,41.35624],[1.49374,41.35528],[1.50436,41.36159],[1.51252,41.35916],[1.5281,41.369],[1.53702,41.38534],[1.51858,41.38886],[1.5097,41.39423],[1.49546,41.38967],[1.48423,41.38165],[1.47319,41.38026],[1.47986,41.38713],[1.48211,41.39812],[1.4902,41.40173],[1.48219,41.4222],[1.47746,41.4234],[1.47596,41.42931],[1.47854,41.4331],[1.48442,41.43177],[1.49595,41.43572],[1.47527,41.43661],[1.46865,41.44369],[1.48292,41.45761],[1.48699,41.46452],[1.48579,41.4719],[1.47459,41.4783],[1.47336,41.48605],[1.46681,41.48429],[1.4634,41.48765],[1.45444,41.48763],[1.44624,41.49511],[1.40817,41.5046],[1.40151,41.51243],[1.39574,41.51289],[1.39836,41.51417],[1.40049,41.52884],[1.40616,41.53426],[1.42569,41.5321],[1.43629,41.53935],[1.44835,41.53711],[1.44672,41.55247],[1.43485,41.55016],[1.43109,41.55557],[1.45397,41.56925],[1.41937,41.58286],[1.4152,41.58258],[1.40888,41.57589],[1.39513,41.57741],[1.39253,41.5752],[1.39569,41.58507],[1.40777,41.59074],[1.40733,41.60034],[1.39356,41.59971],[1.37497,41.60753],[1.37488,41.61181],[1.36875,41.61045],[1.36053,41.61374],[1.36959,41.61733],[1.36988,41.62139],[1.38632,41.62612],[1.38743,41.63136],[1.39591,41.63504],[1.42053,41.63445],[1.43057,41.62982],[1.43115,41.63409],[1.44891,41.63667],[1.45575,41.63184],[1.48697,41.6263],[1.49121,41.63054],[1.48804,41.64058],[1.45529,41.64254],[1.433,41.65153],[1.43091,41.65529],[1.44237,41.65763],[1.46901,41.65234],[1.48692,41.64433],[1.50567,41.64853],[1.50238,41.65975],[1.51645,41.6579],[1.51672,41.6624],[1.52363,41.65913],[1.53005,41.66038],[1.52728,41.6621],[1.52771,41.67274],[1.53614,41.68846],[1.57225,41.68225],[1.58261,41.68822],[1.58985,41.68743],[1.61576,41.69595],[1.62131,41.69025],[1.61845,41.68225],[1.62507,41.67936],[1.62345,41.67406],[1.6342,41.66797],[1.63392,41.66422],[1.62768,41.66031],[1.63774,41.64587],[1.64102,41.64629],[1.64222,41.65409],[1.66009,41.65551],[1.66867,41.64959],[1.66366,41.64432],[1.66501,41.63916],[1.68106,41.61947],[1.69131,41.6223],[1.70176,41.61886],[1.71702,41.63556],[1.72497,41.63864],[1.72838,41.64597],[1.75702,41.64412],[1.77445,41.65463],[1.77979,41.65349],[1.77744,41.64666],[1.78955,41.63714],[1.78521,41.6172],[1.78731,41.61099],[1.81284,41.6035],[1.80602,41.57173],[1.79494,41.56152],[1.81345,41.55572],[1.83176,41.532],[1.84184,41.52373],[1.85352,41.51994],[1.85496,41.50867],[1.84264,41.50641],[1.83907,41.50072],[1.84049,41.49765],[1.84773,41.48943],[1.87145,41.47713],[1.87277,41.4602],[1.89687,41.43344],[1.89131,41.43002],[1.88751,41.42301],[1.88875,41.41892],[1.88229,41.41423],[1.88119,41.41159],[1.88495,41.40814],[1.87924,41.40528],[1.87578,41.39894],[1.87667,41.38961],[1.86934,41.38728],[1.87089,41.38041],[1.88724,41.372],[1.89007,41.36279],[1.89838,41.35481],[1.88296,41.34449],[1.8702,41.34288],[1.871,41.33818],[1.86181,41.33424],[1.85166,41.31924],[1.84785,41.31932],[1.85019,41.31646],[1.84673,41.30635],[1.85518,41.29859],[1.87267,41.29345],[1.86907,41.28129],[1.87143,41.27864],[1.89208,41.28247],[1.9022,41.28085],[1.91487,41.28896],[1.92601,41.29022],[1.94249,41.28027],[1.9374,41.27479],[1.9445,41.26349],[1.93254,41.26168],[1.92871,41.25905],[1.92141,41.25564],[1.92822,41.26084],[1.90627,41.25503],[1.90307,41.25358],[1.90079,41.24896],[1.90003,41.24853],[1.90175,41.25178],[1.86944,41.24295],[1.86625,41.23976],[1.86767,41.23796],[1.86594,41.23652],[1.86613,41.23944],[1.85392,41.23463],[1.82897,41.23668],[1.82701,41.23305],[1.82419,41.23203],[1.82669,41.23423],[1.8151,41.23599],[1.79628,41.23033],[1.78852,41.22374],[1.74268,41.21825],[1.73733,41.21439],[1.73812,41.21076],[1.73004,41.20593],[1.73718,41.21132],[1.73405,41.21279],[1.73669,41.21341],[1.73578,41.21592],[1.73425,41.21346],[1.73326,41.21539],[1.72827,41.21492],[1.73165,41.20996],[1.72921,41.20798],[1.72328,41.21174],[1.6983,41.20809],[1.65543,41.19397],[1.64717,41.19279],[1.6526,41.19382],[1.65422,41.19508],[1.65479,41.19596],[1.65459,41.19667],[1.61439,41.19042],[1.60833,41.18848],[1.60855,41.18479],[1.60754,41.18365],[1.6083,41.18546],[1.60678,41.18916],[1.60678,41.18452],[1.60506,41.18815],[1.59914,41.18882]]],[[[1.6446,41.19334],[1.64195,41.19323],[1.64476,41.19349],[1.6446,41.19334]]],[[[1.6502,41.19459],[1.65185,41.19469],[1.65151,41.1944],[1.6502,41.19459]]],[[[1.66175,41.1951],[1.66262,41.19532],[1.66299,41.19528],[1.66175,41.1951]]],[[[1.66528,41.19559],[1.6661,41.19576],[1.66656,41.19574],[1.66528,41.19559]]],[[[1.67026,41.19614],[1.66891,41.19615],[1.67038,41.19622],[1.67026,41.19614]]]]}}]}